[{"OBJECT_NAME":"TEVEL2-3","OBJECT_ID":"2025-052J","EPOCH":"2026-03-09T15:29:22.754400","MEAN_MOTION":15.30377031,"ECCENTRICITY":0.0004761,"INCLINATION":97.3994,"RA_OF_ASC_NODE":324.7775,"ARG_OF_PERICENTER":105.7353,"MEAN_ANOMALY":254.4413,"EPHEMERIS_TYPE":0,"CLASSIFICATION_TYPE":"U","NORAD_CAT_ID":63218,"ELEMENT_SET_NO":999,"REV_AT_EPOCH":5485,"BSTAR":0.00069446,"MEAN_MOTION_DOT":0.00020365,"MEAN_MOTION_DDOT":0},{"OBJECT_NAME":"STARLINK-35948","OBJECT_ID":"2025-271S","EPOCH":"2026-03-09T11:17:06.192384","MEAN_MOTION":15.30210809,"ECCENTRICITY":0.00012214,"INCLINATION":53.1581,"RA_OF_ASC_NODE":140.915,"ARG_OF_PERICENTER":80.2539,"MEAN_ANOMALY":279.8599,"EPHEMERIS_TYPE":0,"CLASSIFICATION_TYPE":"U","NORAD_CAT_ID":66633,"ELEMENT_SET_NO":999,"REV_AT_EPOCH":1753,"BSTAR":0.00094805321,"MEAN_MOTION_DOT":0.00027834,"MEAN_MOTION_DDOT":0}]
